{
    "links": {
        "self": "http://www.neowsapp.com/rest/v1/neo/3508129?api_key=iIulBulltgU6a56xZRHN4H3l9WmuAYTsLGpBGhQ2"
    },
    "id": "3508129",
    "neo_reference_id": "3508129",
    "name": "(2010 CP44)",
    "designation": "2010 CP44",
    "nasa_jpl_url": "http://ssd.jpl.nasa.gov/sbdb.cgi?sstr=3508129",
    "absolute_magnitude_h": 25.7,
    "estimated_diameter": {
        "kilometers": {
            "estimated_diameter_min": 0.0192555078,
            "estimated_diameter_max": 0.0430566244
        },
        "meters": {
            "estimated_diameter_min": 19.2555078188,
            "estimated_diameter_max": 43.0566244241
        },
        "miles": {
            "estimated_diameter_min": 0.0119648141,
            "estimated_diameter_max": 0.0267541378
        },
        "feet": {
            "estimated_diameter_min": 63.1742402722,
            "estimated_diameter_max": 141.2618956756
        }
    },
    "is_potentially_hazardous_asteroid": false,
    "close_approach_data": [
        {
            "close_approach_date": "2010-02-26",
            "close_approach_date_full": "2010-Feb-26 01:55",
            "epoch_date_close_approach": 1267149300000,
            "relative_velocity": {
                "kilometers_per_second": "12.886582969",
                "kilometers_per_hour": "46391.6986884018",
                "miles_per_hour": "28825.9974433572"
            },
            "miss_distance": {
                "astronomical": "0.0262338165",
                "lunar": "10.2049546185",
                "kilometers": "3924523.070370855",
                "miles": "2438585.557213599"
            },
            "orbiting_body": "Earth"
        }
    ],
    "orbital_data": {
        "orbit_id": "7",
        "orbit_determination_date": "2017-04-06 08:58:24",
        "first_observation_date": "2010-02-15",
        "last_observation_date": "2010-02-20",
        "data_arc_in_days": 5,
        "observations_used": 18,
        "orbit_uncertainty": "9",
        "minimum_orbit_intersection": ".026222",
        "jupiter_tisserand_invariant": "3.509",
        "epoch_osculation": "2455243.5",
        "eccentricity": ".5843039685542948",
        "semi_major_axis": "2.095339245854897",
        "inclination": "5.130058149671195",
        "ascending_node_longitude": "320.5327684740475",
        "orbital_period": "1107.847413339242",
        "perihelion_distance": ".8710242090343178",
        "perihelion_argument": "245.4421313710498",
        "aphelion_distance": "3.319654282675477",
        "perihelion_time": "2455288.609288906976",
        "mean_anomaly": "345.3415336706314",
        "mean_motion": ".3249544979438082",
        "equinox": "J2000",
        "orbit_class": {
            "orbit_class_type": "APO",
            "orbit_class_description": "Near-Earth asteroid orbits which cross the Earth’s orbit similar to that of 1862 Apollo",
            "orbit_class_range": "a (semi-major axis) > 1.0 AU; q (perihelion) < 1.017 AU"
        }
    },
    "is_sentry_object": false
}